GLOBALSTAR M035         
1 25851U 99037A   24360.55609056 -.00000113  00000+0 -18709-2 0  9993
2 25851  51.9960  82.1780 0013955  64.3329  39.5640 11.04535313 77073
GLOBALSTAR M051         
1 25853U 99037C   24360.60441860 -.00000071  00000+0  26589-4 0  9997
2 25853  51.9793  99.6376 0000759 205.1783 154.8991 11.42199891112574
GLOBALSTAR M048         
1 25872U 99041A   24360.46756216 -.00000048  00000+0  59472-3 0  9991
2 25872  51.9396  28.2861 0013303 242.7555 265.6471 11.33852758105275
GLOBALSTAR M026         
1 25873U 99041B   24360.55892689  .00000040  00000+0  38304-2 0  9998
2 25873  51.9968 201.9579 0001405  14.4822 357.0385 11.06825757129262
GLOBALSTAR M043         
1 25874U 99041C   24360.58557748 -.00000039  00000+0  86165-3 0  9994
2 25874  51.9385 128.7312 0013057  20.5419  63.2673 11.25689087103323
GLOBALSTAR M028         
1 25875U 99041D   24360.47738124 -.00000110  00000+0 -62857-4 0  9996
2 25875  51.9648 351.0347 0063578  54.2208 306.4541 12.50572678168444
